MALLIGYONG-1            
1 58400U 23179A   24222.52082623  .00010244  00000+0  45318-3 0  9993
2 58400  97.3952 108.4668 0002619  55.6366 304.5117 15.21865143 39836
